[{"OBJECT_NAME":"STARLINK-37068","OBJECT_ID":"2026-042S","EPOCH":"2026-04-02T05:20:07.719648","MEAN_MOTION":15.75325279,"ECCENTRICITY":0.00011706,"INCLINATION":53.1595,"RA_OF_ASC_NODE":76.9349,"ARG_OF_PERICENTER":86.1932,"MEAN_ANOMALY":273.9222,"EPHEMERIS_TYPE":0,"CLASSIFICATION_TYPE":"U","NORAD_CAT_ID":68085,"ELEMENT_SET_NO":999,"REV_AT_EPOCH":580,"BSTAR":0.00090858742,"MEAN_MOTION_DOT":0.00141521,"MEAN_MOTION_DDOT":0},{"OBJECT_NAME":"STARLINK-37067","OBJECT_ID":"2026-042T","EPOCH":"2026-04-02T06:00:02.999808","MEAN_MOTION":15.751944,"ECCENTRICITY":0.00012944,"INCLINATION":53.1594,"RA_OF_ASC_NODE":76.588,"ARG_OF_PERICENTER":80.5025,"MEAN_ANOMALY":179.921,"EPHEMERIS_TYPE":0,"CLASSIFICATION_TYPE":"U","NORAD_CAT_ID":68086,"ELEMENT_SET_NO":999,"REV_AT_EPOCH":584,"BSTAR":0.00036261849,"MEAN_MOTION_DOT":0.000552,"MEAN_MOTION_DDOT":0},{"OBJECT_NAME":"STARLINK-37062","OBJECT_ID":"2026-042U","EPOCH":"2026-04-02T06:00:02.999808","MEAN_MOTION":15.75262414,"ECCENTRICITY":0.00013095,"INCLINATION":53.1591,"RA_OF_ASC_NODE":76.6368,"ARG_OF_PERICENTER":102.5053,"MEAN_ANOMALY":134.0247,"EPHEMERIS_TYPE":0,"CLASSIFICATION_TYPE":"U","NORAD_CAT_ID":68087,"ELEMENT_SET_NO":999,"REV_AT_EPOCH":584,"BSTAR":-0.00067550371,"MEAN_MOTION_DOT":-0.00103042,"MEAN_MOTION_DDOT":0},{"OBJECT_NAME":"STARLINK-37059","OBJECT_ID":"2026-042V","EPOCH":"2026-04-02T05:13:07.176288","MEAN_MOTION":15.75345156,"ECCENTRICITY":0.00010628,"INCLINATION":53.1599,"RA_OF_ASC_NODE":76.9029,"ARG_OF_PERICENTER":100.9991,"MEAN_ANOMALY":259.1149,"EPHEMERIS_TYPE":0,"CLASSIFICATION_TYPE":"U","NORAD_CAT_ID":68088,"ELEMENT_SET_NO":999,"REV_AT_EPOCH":580,"BSTAR":0.001658158,"MEAN_MOTION_DOT":0.00262807,"MEAN_MOTION_DDOT":0},{"OBJECT_NAME":"STARLINK-37004","OBJECT_ID":"2026-042W","EPOCH":"2026-04-02T05:19:39.327744","MEAN_MOTION":15.75315476,"ECCENTRICITY":8.068e-5,"INCLINATION":53.1595,"RA_OF_ASC_NODE":76.9331,"ARG_OF_PERICENTER":84.4715,"MEAN_ANOMALY":275.6397,"EPHEMERIS_TYPE":0,"CLASSIFICATION_TYPE":"U","NORAD_CAT_ID":68089,"ELEMENT_SET_NO":999,"REV_AT_EPOCH":580,"BSTAR":0.0012603129,"MEAN_MOTION_DOT":0.00197794,"MEAN_MOTION_DDOT":0},{"OBJECT_NAME":"STARLINK-36320","OBJECT_ID":"2026-042X","EPOCH":"2026-03-27T03:41:33.349344","MEAN_MOTION":15.75432358,"ECCENTRICITY":0.00027632,"INCLINATION":53.1593,"RA_OF_ASC_NODE":107.3571,"ARG_OF_PERICENTER":139.4736,"MEAN_ANOMALY":220.6491,"EPHEMERIS_TYPE":0,"CLASSIFICATION_TYPE":"U","NORAD_CAT_ID":68090,"ELEMENT_SET_NO":999,"REV_AT_EPOCH":484,"BSTAR":0.002325439,"MEAN_MOTION_DOT":0.00375248,"MEAN_MOTION_DDOT":0},{"OBJECT_NAME":"STARLINK-36324","OBJECT_ID":"2026-042Y","EPOCH":"2026-04-02T04:27:30.956544","MEAN_MOTION":15.76737046,"ECCENTRICITY":0.00051335,"INCLINATION":53.1582,"RA_OF_ASC_NODE":77.4309,"ARG_OF_PERICENTER":273.477,"MEAN_ANOMALY":86.5663,"EPHEMERIS_TYPE":0,"CLASSIFICATION_TYPE":"U","NORAD_CAT_ID":68091,"ELEMENT_SET_NO":999,"REV_AT_EPOCH":579,"BSTAR":0.0066263476,"MEAN_MOTION_DOT":0.01201852,"MEAN_MOTION_DDOT":0},{"OBJECT_NAME":"STARLINK-36896","OBJECT_ID":"2026-042Z","EPOCH":"2026-04-02T06:00:02.999808","MEAN_MOTION":15.75283445,"ECCENTRICITY":0.00011305,"INCLINATION":53.1582,"RA_OF_ASC_NODE":77.0068,"ARG_OF_PERICENTER":89.7105,"MEAN_ANOMALY":326.5408,"EPHEMERIS_TYPE":0,"CLASSIFICATION_TYPE":"U","NORAD_CAT_ID":68092,"ELEMENT_SET_NO":999,"REV_AT_EPOCH":584,"BSTAR":-0.00092744127,"MEAN_MOTION_DOT":-0.00140738,"MEAN_MOTION_DDOT":0},{"OBJECT_NAME":"STARLINK-36251","OBJECT_ID":"2026-042AA","EPOCH":"2026-04-02T06:00:02.999808","MEAN_MOTION":15.75231203,"ECCENTRICITY":0.00013711,"INCLINATION":53.1593,"RA_OF_ASC_NODE":76.5343,"ARG_OF_PERICENTER":89.2265,"MEAN_ANOMALY":196.9439,"EPHEMERIS_TYPE":0,"CLASSIFICATION_TYPE":"U","NORAD_CAT_ID":68093,"ELEMENT_SET_NO":999,"REV_AT_EPOCH":583,"BSTAR":-0.00014420619,"MEAN_MOTION_DOT":-0.00022678,"MEAN_MOTION_DDOT":0},{"OBJECT_NAME":"STARLINK-36787","OBJECT_ID":"2026-042AB","EPOCH":"2026-04-02T06:00:02.999808","MEAN_MOTION":15.75269433,"ECCENTRICITY":0.00011909,"INCLINATION":53.1584,"RA_OF_ASC_NODE":77.0627,"ARG_OF_PERICENTER":87.5514,"MEAN_ANOMALY":301.0869,"EPHEMERIS_TYPE":0,"CLASSIFICATION_TYPE":"U","NORAD_CAT_ID":68094,"ELEMENT_SET_NO":999,"REV_AT_EPOCH":583,"BSTAR":-0.00063325394,"MEAN_MOTION_DOT":-0.00096736,"MEAN_MOTION_DDOT":0},{"OBJECT_NAME":"STARLINK-36790","OBJECT_ID":"2026-042AC","EPOCH":"2026-04-02T05:26:39.966144","MEAN_MOTION":15.75314267,"ECCENTRICITY":0.00013717,"INCLINATION":53.1589,"RA_OF_ASC_NODE":76.9655,"ARG_OF_PERICENTER":100.5847,"MEAN_ANOMALY":259.5328,"EPHEMERIS_TYPE":0,"CLASSIFICATION_TYPE":"U","NORAD_CAT_ID":68095,"ELEMENT_SET_NO":999,"REV_AT_EPOCH":579,"BSTAR":0.0024346398,"MEAN_MOTION_DOT":0.00391654,"MEAN_MOTION_DDOT":0},{"OBJECT_NAME":"STARLINK-36328","OBJECT_ID":"2026-042AD","EPOCH":"2026-04-02T06:00:02.999808","MEAN_MOTION":15.7522762,"ECCENTRICITY":0.00012085,"INCLINATION":53.1592,"RA_OF_ASC_NODE":76.6914,"ARG_OF_PERICENTER":90.7321,"MEAN_ANOMALY":118.1901,"EPHEMERIS_TYPE":0,"CLASSIFICATION_TYPE":"U","NORAD_CAT_ID":68096,"ELEMENT_SET_NO":999,"REV_AT_EPOCH":583,"BSTAR":-0.00026039054,"MEAN_MOTION_DOT":-0.00040344,"MEAN_MOTION_DDOT":0},{"OBJECT_NAME":"STARLINK-36853","OBJECT_ID":"2026-042AE","EPOCH":"2026-04-02T06:00:02.999808","MEAN_MOTION":15.75257447,"ECCENTRICITY":0.00012036,"INCLINATION":53.1589,"RA_OF_ASC_NODE":76.639,"ARG_OF_PERICENTER":88.4734,"MEAN_ANOMALY":146.1903,"EPHEMERIS_TYPE":0,"CLASSIFICATION_TYPE":"U","NORAD_CAT_ID":68097,"ELEMENT_SET_NO":999,"REV_AT_EPOCH":584,"BSTAR":-0.00058768334,"MEAN_MOTION_DOT":-0.00089846,"MEAN_MOTION_DDOT":0},{"OBJECT_NAME":"GLOBAL-34","OBJECT_ID":"2026-043A","EPOCH":"2026-04-01T22:46:35.075712","MEAN_MOTION":15.31990734,"ECCENTRICITY":0.00035839,"INCLINATION":42.0209,"RA_OF_ASC_NODE":301.2069,"ARG_OF_PERICENTER":95.7602,"MEAN_ANOMALY":264.3644,"EPHEMERIS_TYPE":0,"CLASSIFICATION_TYPE":"U","NORAD_CAT_ID":68098,"ELEMENT_SET_NO":999,"REV_AT_EPOCH":413,"BSTAR":0.00043329621,"MEAN_MOTION_DOT":0.00013447,"MEAN_MOTION_DDOT":0},{"OBJECT_NAME":"STARLINK-37022","OBJECT_ID":"2026-044A","EPOCH":"2026-04-02T06:00:02.999808","MEAN_MOTION":15.54812955,"ECCENTRICITY":0.00016086,"INCLINATION":97.2855,"RA_OF_ASC_NODE":53.4667,"ARG_OF_PERICENTER":107.6456,"MEAN_ANOMALY":248.3309,"EPHEMERIS_TYPE":0,"CLASSIFICATION_TYPE":"U","NORAD_CAT_ID":68101,"ELEMENT_SET_NO":999,"REV_AT_EPOCH":519,"BSTAR":-0.031414391,"MEAN_MOTION_DOT":-0.01851026,"MEAN_MOTION_DDOT":0},{"OBJECT_NAME":"STARLINK-37046","OBJECT_ID":"2026-044B","EPOCH":"2026-04-02T06:00:02.999808","MEAN_MOTION":15.55357855,"ECCENTRICITY":0.00015863,"INCLINATION":97.2853,"RA_OF_ASC_NODE":53.4737,"ARG_OF_PERICENTER":98.9786,"MEAN_ANOMALY":272.325,"EPHEMERIS_TYPE":0,"CLASSIFICATION_TYPE":"U","NORAD_CAT_ID":68102,"ELEMENT_SET_NO":999,"REV_AT_EPOCH":519,"BSTAR":-0.030807037,"MEAN_MOTION_DOT":-0.01851974,"MEAN_MOTION_DDOT":0}]
