STARLINK-37068          
1 68085U 26042S   26092.22231157  .00141521  00000+0  90859-3 0  9990
2 68085  53.1595  76.9349 0001170  86.1932 273.9222 15.75325279  5809
STARLINK-37067          
1 68086U 26042T   26092.25003472  .00055200  00000+0  36262-3 0  9997
2 68086  53.1594  76.5880 0001294  80.5025 179.9210 15.75194400  5849
STARLINK-37062          
1 68087U 26042U   26092.25003472 -.00103042  00000+0 -67550-3 0  9992
2 68087  53.1591  76.6368 0001309 102.5053 134.0247 15.75262414  5845
STARLINK-37059          
1 68088U 26042V   26092.21744417  .00262807  00000+0  16582-2 0  9991
2 68088  53.1599  76.9029 0001062 100.9991 259.1149 15.75345156  5801
STARLINK-37004          
1 68089U 26042W   26092.22198296  .00197794  00000+0  12603-2 0  9993
2 68089  53.1595  76.9331 0000806  84.4715 275.6397 15.75315476  5809
STARLINK-36320          
1 68090U 26042X   26086.15385821  .00375248  00000+0  23254-2 0  9998
2 68090  53.1593 107.3571 0002763 139.4736 220.6491 15.75432358  4849
STARLINK-36324          
1 68091U 26042Y   26092.18577496  .01201852  00000+0  66263-2 0  9997
2 68091  53.1582  77.4309 0005133 273.4770  86.5663 15.76737046  5793
STARLINK-36896          
1 68092U 26042Z   26092.25003472 -.00140738  00000+0 -92744-3 0  9994
2 68092  53.1582  77.0068 0001130  89.7105 326.5408 15.75283445  5843
STARLINK-36251          
1 68093U 26042AA  26092.25003472 -.00022678  00000+0 -14421-3 0  9993
2 68093  53.1593  76.5343 0001371  89.2265 196.9439 15.75231203  5832
STARLINK-36787          
1 68094U 26042AB  26092.25003472 -.00096736  00000+0 -63325-3 0  9997
2 68094  53.1584  77.0627 0001190  87.5514 301.0869 15.75269433  5833
STARLINK-36790          
1 68095U 26042AC  26092.22685146  .00391654  00000+0  24346-2 0  9993
2 68095  53.1589  76.9655 0001371 100.5847 259.5328 15.75314267  5792
STARLINK-36328          
1 68096U 26042AD  26092.25003472 -.00040344  00000+0 -26039-3 0  9994
2 68096  53.1592  76.6914 0001208  90.7321 118.1901 15.75227620  5836
STARLINK-36853          
1 68097U 26042AE  26092.25003472 -.00089846  00000+0 -58768-3 0  9999
2 68097  53.1589  76.6390 0001203  88.4734 146.1903 15.75257447  5842
GLOBAL-34               
1 68098U 26043A   26091.94901708  .00013447  00000+0  43330-3 0  9996
2 68098  42.0209 301.2069 0003583  95.7602 264.3644 15.31990734  4138
STARLINK-37022          
1 68101U 26044A   26092.25003472 -.01851026  00000+0 -31414-1 0  9992
2 68101  97.2855  53.4667 0001608 107.6456 248.3309 15.54812955  5198
STARLINK-37046          
1 68102U 26044B   26092.25003472 -.01851974  00000+0 -30807-1 0  9990
2 68102  97.2853  53.4737 0001586  98.9786 272.3250 15.55357855  5194
